NORAD_CAT_ID,OBJECT_NAME,OBJECT_TYPE,EPOCH,MEAN_MOTION,ECCENTRICITY,INCLINATION,RA_OF_ASC_NODE,ARG_OF_PERICENTER,MEAN_ANOMALY,BSTAR,MEAN_MOTION_DOT,MEAN_MOTION_DDOT,TLE_LINE0,TLE_LINE1,TLE_LINE2,SEMIMAJOR_AXIS,PERIOD,APOGEE,PERIGEE,DECAYED
54194.0,STARLINK-5271,PAYLOAD,2023-12-02 15:46:21,15.08847546,0.0001484,53.2177,111.2671,76.2071,283.9086,0.00017478,2.495e-05,0.0,0 STARLINK-5271,1 54194U 22141AP  23336.65719552  .00002495  00000-0  17478-3 0  9990,2 54194  53.2177 111.2671 0001484  76.2071 283.9086 15.08847546 61224,6917.857,95.437,540.749,538.696,0.0
54194.0,STARLINK-5271,PAYLOAD,2023-12-03 12:26:24,15.08823552,0.0001396,53.2177,107.3889,106.2699,253.8446,-0.00020794,-3.594e-05,0.0,0 STARLINK-5271,1 54194U 22141AP  23337.51833419 -.00003594  00000-0 -20794-3 0  9993,2 54194  53.2177 107.3889 0001396 106.2699 253.8446 15.08823552 61354,6917.931,95.439,540.761,538.83,0.0
54194.0,STARLINK-5271,PAYLOAD,2023-12-03 14:01:48,15.08821988,0.0001367,53.2179,107.0982,104.821,255.2934,-0.00013452,-2.427e-05,0.0,0 STARLINK-5271,1 54194U 22141AP  23337.58458357 -.00002427  00000-0 -13452-3 0  9991,2 54194  53.2179 107.0982 0001367 104.8210 255.2934 15.08821988 61133,6917.935,95.439,540.746,538.855,0.0
54194.0,STARLINK-5271,PAYLOAD,2023-12-03 15:37:11,15.08820677,0.0001365,53.2183,106.8011,110.1987,249.9152,-0.0001441,-2.579e-05,0.0,0 STARLINK-5271,1 54194U 22141AP  23337.65082491 -.00002579  00000-0 -14410-3 0  9994,2 54194  53.2183 106.8011 0001365 110.1987 249.9152 15.08820677 61379,6917.939,95.439,540.749,538.86,0.0
54194.0,STARLINK-5271,PAYLOAD,2023-12-04 12:17:12,15.08831456,0.0001181,53.2176,102.9382,101.1677,258.9448,-7.9304e-05,-1.549e-05,0.0,0 STARLINK-5271,1 54194U 22141AP  23338.51194491 -.00001549  00000-0 -79304-4 0  9994,2 54194  53.2176 102.9382 0001181 101.1677 258.9448 15.08831456 61501,6917.907,95.438,540.589,538.954,0.0
54194.0,STARLINK-5271,PAYLOAD,2023-12-05 12:07:58,15.08841005,0.0001168,53.2173,98.4785,103.5424,256.5699,0.00042115,6.421e-05,0.0,0 STARLINK-5271,1 54194U 22141AP  23339.50553269  .00006421  00000-0  42115-3 0  9997,2 54194  53.2173  98.4785 0001168 103.5424 256.5699 15.08841005 61654,6917.877,95.437,540.55,538.934,0.0
54194.0,STARLINK-5271,PAYLOAD,2023-12-06 11:58:45,15.08851007,0.0001376,53.2177,94.0167,107.6963,252.4179,0.00011501,1.543e-05,0.0,0 STARLINK-5271,1 54194U 22141AP  23340.49913359  .00001543  00000-0  11501-3 0  9992,2 54194  53.2177  94.0167 0001376 107.6963 252.4179 15.08851007 61806,6917.847,95.437,540.664,538.76,0.0
54194.0,STARLINK-5271,PAYLOAD,2023-12-06 13:34:08,15.08846274,0.0001387,53.2192,93.7239,108.2397,251.8746,0.00013732,1.899e-05,0.0,0 STARLINK-5271,1 54194U 22141AP  23340.56537593  .00001899  00000-0  13732-3 0  9994,2 54194  53.2192  93.7239 0001387 108.2397 251.8746 15.08846274 61587,6917.861,95.437,540.686,538.767,0.0
54194.0,STARLINK-5271,PAYLOAD,2023-12-07 11:49:32,15.08823246,0.0001817,53.2193,89.5614,112.2508,247.8677,0.00022774,3.337e-05,0.0,0 STARLINK-5271,1 54194U 22141AP  23341.49274227  .00003337  00000-0  22774-3 0  9994,2 54194  53.2193  89.5614 0001817 112.2508 247.8677 15.08823246 61958,6917.932,95.439,541.054,538.54,0.0
54194.0,STARLINK-5271,PAYLOAD,2023-12-07 13:24:55,15.08851003,0.0001523,53.2186,89.2617,95.4791,264.6374,-0.00010728,-1.995e-05,0.0,0 STARLINK-5271,1 54194U 22141AP  23341.55897403 -.00001995  00000-0 -10728-3 0  9994,2 54194  53.2186  89.2617 0001523  95.4791 264.6374 15.08851003 61739,6917.847,95.437,540.765,538.658,0.0
54194.0,STARLINK-5271,PAYLOAD,2023-12-07 16:35:41,15.0886211,0.0002327,53.2188,88.6645,119.7632,240.3592,-0.0002473,-4.225e-05,0.0,0 STARLINK-5271,1 54194U 22141AP  23341.69144770 -.00004225  00000-0 -24730-3 0  9998,2 54194  53.2188  88.6645 0002327 119.7632 240.3592 15.08862110 61983,6917.813,95.436,541.288,538.068,0.0
54194.0,STARLINK-5271,PAYLOAD,2023-12-08 11:40:19,15.08839761,0.000148,53.2193,85.0927,86.599,273.5172,8.5891e-05,1.079e-05,0.0,0 STARLINK-5271,1 54194U 22141AP  23342.48633242  .00001079  00000-0  85891-4 0  9991,2 54194  53.2193  85.0927 0001480  86.5990 273.5172 15.08839761 62103,6917.881,95.438,540.77,538.722,0.0
54194.0,STARLINK-5271,PAYLOAD,2023-12-08 13:15:42,15.08840923,0.0001486,53.2192,84.7943,83.657,276.4591,9.4804e-05,1.221e-05,0.0,0 STARLINK-5271,1 54194U 22141AP  23342.55257155  .00001221  00000-0  94804-4 0  9997,2 54194  53.2192  84.7943 0001486  83.6570 276.4591 15.08840923 61887,6917.878,95.437,540.771,538.715,0.0
54194.0,STARLINK-5271,PAYLOAD,2023-12-09 13:06:29,15.08842654,0.0001401,53.2186,80.3404,102.3355,257.7794,4.9261e-05,4.96e-06,0.0,0 STARLINK-5271,1 54194U 22141AP  23343.54617068  .00000496  00000-0  49261-4 0  9990,2 54194  53.2186  80.3404 0001401 102.3355 257.7794 15.08842654 62039,6917.872,95.437,540.706,538.768,0.0
54194.0,STARLINK-5271,PAYLOAD,2023-12-10 06:35:44,15.08837674,0.0001396,53.2179,77.0714,80.1803,279.9346,2.4771e-06,-2.49e-06,0.0,0 STARLINK-5271,1 54194U 22141AP  23344.27481675 -.00000249  00000-0  24771-5 0  9991,2 54194  53.2179  77.0714 0001396  80.1803 279.9346 15.08837674 62374,6917.887,95.438,540.718,538.787,0.0
54194.0,STARLINK-5271,PAYLOAD,2023-12-10 12:57:16,15.08836985,0.0001367,53.2178,75.8818,80.6545,279.4602,-4.3038e-06,-3.56e-06,0.0,0 STARLINK-5271,1 54194U 22141AP  23344.53977751 -.00000356  00000-0 -43038-5 0  9992,2 54194  53.2178  75.8818 0001367  80.6545 279.4602 15.08836985 62183,6917.89,95.438,540.7,538.809,0.0
54194.0,STARLINK-5271,PAYLOAD,2023-12-11 11:12:40,15.08838418,0.0001324,53.2179,71.719,85.8193,274.295,4.565e-05,4.39e-06,0.0,0 STARLINK-5271,1 54194U 22141AP  23345.46713553  .00000439  00000-0  45650-4 0  9994,2 54194  53.2179  71.7190 0001324  85.8193 274.2950 15.08838418 62554,6917.885,95.438,540.666,538.834,0.0
54194.0,STARLINK-5271,PAYLOAD,2023-12-11 12:48:03,15.08840401,0.000139,53.2185,71.4216,91.4937,268.6215,6.0838e-05,6.8e-06,0.0,0 STARLINK-5271,1 54194U 22141AP  23345.53337394  .00000680  00000-0  60838-4 0  9990,2 54194  53.2185  71.4216 0001390  91.4937 268.6215 15.08840401 62331,6917.879,95.438,540.706,538.783,0.0
54194.0,STARLINK-5271,PAYLOAD,2023-12-12 12:38:50,15.08837604,0.0001439,53.2186,66.9583,93.6108,266.5049,5.9329e-05,6.56e-06,0.0,0 STARLINK-5271,1 54194U 22141AP  23346.52697757  .00000656  00000-0  59329-4 0  9998,2 54194  53.2186  66.9583 0001439  93.6108 266.5049 15.08837604 62485,6917.888,95.438,540.748,538.757,0.0
54194.0,STARLINK-5271,PAYLOAD,2023-12-13 10:54:14,15.08839637,0.0001523,53.2189,62.7982,104.037,256.0791,4.1314e-05,3.7e-06,0.0,0 STARLINK-5271,1 54194U 22141AP  23347.45433765  .00000370  00000-0  41314-4 0  9996,2 54194  53.2189  62.7982 0001523 104.0370 256.0791 15.08839637 62629,6917.881,95.438,540.8,538.693,0.0
54194.0,STARLINK-5271,PAYLOAD,2023-12-14 12:20:24,15.08844133,0.00014,53.2183,58.0385,86.517,273.5982,6.7869e-05,7.92e-06,0.0,0 STARLINK-5271,1 54194U 22141AP  23348.51417573  .00000792  00000-0  67869-4 0  9994,2 54194  53.2183  58.0385 0001400  86.5170 273.5982 15.08844133 63011,6917.868,95.437,540.701,538.764,0.0
54194.0,STARLINK-5271,PAYLOAD,2023-12-15 12:11:12,15.08840274,0.0001533,53.2187,53.5789,72.7265,287.3894,5.8701e-05,6.46e-06,0.0,0 STARLINK-5271,1 54194U 22141AP  23349.50777907  .00000646  00000-0  58701-4 0  9997,2 54194  53.2187  53.5789 0001533  72.7265 287.3894 15.08840274 63165,6917.88,95.438,540.805,538.684,0.0
54194.0,STARLINK-5271,PAYLOAD,2023-12-16 10:26:36,15.08840854,0.0001922,53.2195,49.4163,61.9703,298.1484,1.514e-05,-4.7e-07,0.0,0 STARLINK-5271,1 54194U 22141AP  23350.43514253 -.00000047  00000-0  15140-4 0  9990,2 54194  53.2195  49.4163 0001922  61.9703 298.1484 15.08840854 63072,6917.878,95.438,541.072,538.413,0.0
54194.0,STARLINK-5271,PAYLOAD,2023-12-17 10:17:23,15.08837978,0.000198,53.2193,44.9569,61.2249,298.8942,3.768e-05,3.12e-06,0.0,0 STARLINK-5271,1 54194U 22141AP  23351.42874469  .00000312  00000-0  37680-4 0  9995,2 54194  53.2193  44.9569 0001980  61.2249 298.8942 15.08837978 63453,6917.887,95.438,541.121,538.382,0.0
54194.0,STARLINK-5271,PAYLOAD,2023-12-18 10:08:09,15.08850239,0.0001642,53.2192,40.496,101.2679,258.8498,0.00015888,2.242e-05,0.0,0 STARLINK-5271,1 54194U 22141AP  23352.42232965  .00002242  00000-0  15888-3 0  9994,2 54194  53.2192  40.4960 0001642 101.2679 258.8498 15.08850239 63609,6917.849,95.437,540.85,538.578,0.0
54194.0,STARLINK-5271,PAYLOAD,2023-12-18 22:51:14,15.08843203,0.0002103,53.2192,38.1165,137.2361,222.8795,1.6841e-05,-2e-07,0.0,0 STARLINK-5271,1 54194U 22141AP  23352.95225567 -.00000020  00000-0  16841-4 0  9996,2 54194  53.2192  38.1165 0002103 137.2361 222.8795 15.08843203 63682,6917.871,95.437,541.19,538.281,0.0
54194.0,STARLINK-5271,PAYLOAD,2023-12-19 09:58:57,15.08833359,0.0001268,53.2174,36.0334,102.7616,257.3518,-4.8257e-05,-1.056e-05,0.0,0 STARLINK-5271,1 54194U 22141AP  23353.41594619 -.00001056  00000-0 -48257-4 0  9992,2 54194  53.2174  36.0334 0001268 102.7616 257.3518 15.08833359 63753,6917.901,95.438,540.643,538.888,0.0
54194.0,STARLINK-5271,PAYLOAD,2023-12-20 08:14:21,15.0883934,0.0001424,53.2184,31.8722,108.4082,251.7065,-0.00011206,-2.071e-05,0.0,0 STARLINK-5271,1 54194U 22141AP  23354.34330830 -.00002071  00000-0 -11206-3 0  9999,2 54194  53.2184  31.8722 0001424 108.4082 251.7065 15.08839340 63663,6917.882,95.438,540.733,538.762,0.0
54194.0,STARLINK-5271,PAYLOAD,2023-12-20 22:32:49,15.08833467,0.0001538,53.2192,29.197,116.0543,244.0608,0.00015482,2.176e-05,0.0,0 STARLINK-5271,1 54194U 22141AP  23354.93946478  .00002176  00000-0  15482-3 0  9999,2 54194  53.2192  29.1970 0001538 116.0543 244.0608 15.08833467 63987,6917.9,95.438,540.829,538.701,0.0
54194.0,STARLINK-5271,PAYLOAD,2023-12-21 09:40:31,15.08832482,0.000123,53.2183,27.113,98.3871,261.726,0.00026879,3.992e-05,0.0,0 STARLINK-5271,1 54194U 22141AP  23355.40314644  .00003992  00000-0  26879-3 0  9995,2 54194  53.2183  27.1130 0001230  98.3871 261.7260 15.08832482 63827,6917.903,95.438,540.619,538.917,0.0
